[{"OBJECT_NAME":"STARLINK-6350","OBJECT_ID":"2023-094J","EPOCH":"2026-03-09T22:00:01.999584","MEAN_MOTION":15.13342785,"ECCENTRICITY":5.601e-5,"INCLINATION":43.0016,"RA_OF_ASC_NODE":28.7492,"ARG_OF_PERICENTER":301.6337,"MEAN_ANOMALY":222.0349,"EPHEMERIS_TYPE":0,"CLASSIFICATION_TYPE":"U","NORAD_CAT_ID":57226,"ELEMENT_SET_NO":999,"REV_AT_EPOCH":577,"BSTAR":0.004124811,"MEAN_MOTION_DOT":0.00075399,"MEAN_MOTION_DDOT":0},{"OBJECT_NAME":"SL-8 DEB","OBJECT_ID":"1978-105D","EPOCH":"2026-03-09T21:04:08.767200","MEAN_MOTION":15.136392,"ECCENTRICITY":0.00089422,"INCLINATION":74.0011,"RA_OF_ASC_NODE":359.6492,"ARG_OF_PERICENTER":234.3796,"MEAN_ANOMALY":125.6566,"EPHEMERIS_TYPE":0,"CLASSIFICATION_TYPE":"U","NORAD_CAT_ID":11114,"ELEMENT_SET_NO":999,"REV_AT_EPOCH":51425,"BSTAR":0.0012940005,"MEAN_MOTION_DOT":0.00023316,"MEAN_MOTION_DDOT":0}]
